WGS F6 (USA 244)        
1 39222U 13041A   22002.58996575  .00000094  00000+0  00000+0 0  9998
2 39222   0.0162  53.7130 0000240  70.3048  55.3581  1.00270437 29749
ES'HAIL 1               
1 39233U 13044A   22002.09249244  .00000150  00000+0  00000+0 0  9996
2 39233   0.0496  26.8363 0001532 263.4265 230.2375  1.00273324 30320
GSAT-7                  
1 39234U 13044B   22002.38920920 -.00000071  00000+0  00000+0 0  9999
2 39234   0.0148 310.4072 0009307 321.3794  44.3167  1.00269965 29016
AMOS-4                  
1 39237U 13045A   22002.61538981  .00000012  00000+0  00000+0 0  9995
2 39237   0.0237 295.3773 0002915   7.8187  85.5520  1.00271052 30648
AEHF-3 (USA 246)        
1 39256U 13050A   22002.57181257  .00000138  00000+0  00000+0 0  9996
2 39256   1.3202  67.6649 0057912 186.9864 258.3569  1.00276736 29369
ASTRA 2E                
1 39285U 13056A   22002.30844503  .00000156  00000+0  00000+0 0  9995
2 39285   0.0551   3.0285 0002527 287.8430 310.5804  1.00269032 30126
FM-6                    
1 39360U 13058A   22002.39493674 -.00000011  00000+0  00000+0 0  9990
2 39360   0.0289  54.8326 0000348  15.0891  58.0878  1.00271568 29758
RADUGA-1M 3             
1 39375U 13062A   22002.59679757  .00000158  00000+0  00000+0 0  9992
2 39375   1.8217  91.6701 0003038  47.1830 213.1392  1.00270449 29817
SES-8                   
1 39460U 13071A   22002.61291182 -.00000265  00000+0  00000+0 0  9992
2 39460   0.0444 245.9670 0000339  37.8620 134.0353  1.00269421 28116
INMARSAT 5-F1           
1 39476U 13073A   22002.61235063  .00000033  00000+0  00000+0 0  9999
2 39476   0.0044  97.5697 0000517 346.2893 301.4043  1.00269706 29276
TKSAT-1 (TUPAC KATARI)  
1 39481U 13075A   22002.50067420 -.00000189  00000+0  00000+0 0  9998
2 39481   0.0463 210.0288 0002364  86.1055 259.0434  1.00270388 29536
EXPRESS-AM5             
1 39487U 13077A   22002.54594928 -.00000276  00000+0  00000+0 0  9995
2 39487   0.0449 178.6380 0001169 233.3977  26.6641  1.00268839 30043
GSAT-14                 
1 39498U 14001A   22002.53277932 -.00000072  00000+0  00000+0 0  9991
2 39498   0.0634 277.1240 0005453 348.6584 102.1575  1.00271008 29085
THAICOM 6               
1 39500U 14002A   22002.53373872 -.00000117  00000+0  00000+0 0  9996
2 39500   0.0740 120.2823 0001288  62.1944 190.3317  1.00271583 29140
TDRS 12                 
1 39504U 14004A   22002.32757745 -.00000260  00000+0  00000+0 0  9993
2 39504   4.0122 344.5698 0000581 338.1720 216.2923  1.00271998 27965
ABS-2                   
1 39508U 14006A   22002.53304097 -.00000081  00000+0  00000+0 0  9991
2 39508   0.0218  36.0871 0002622 261.5575  71.3204  1.00271033 28976
ATHENA-FIDUS            
1 39509U 14006B   22002.09493456  .00000161  00000+0  00000+0 0  9999
2 39509   0.0219  45.3417 0000742 228.5468 259.7887  1.00270500 28766
TURKSAT 4A              
1 39522U 14007A   22002.09580675  .00000153  00000+0  00000+0 0  9996
2 39522   0.0500 268.8253 0004741 356.8361 272.5250  1.00272320 28673
EXPRESS-AT1             
1 39612U 14010A   22001.76646556  .00000087  00000+0  00000+0 0  9990
2 39612   0.0526 192.6083 0000079 227.1253  13.5734  1.00271203 28732
EXPRESS-AT2             
1 39613U 14010B   22002.36329594 -.00000276  00000+0  00000+0 0  9999
2 39613   0.0407 214.8235 0000151 129.1088  28.6580  1.00269635 28579
AMAZONAS 4A             
1 39616U 14011A   22002.51299285 -.00000247  00000+0  00000+0 0  9991
2 39616   0.1485  85.0375 0003147 194.9877 292.7526  1.00268528 28389
ASTRA 5B                
1 39617U 14011B   22002.30896833  .00000160  00000+0  00000+0 0  9994
2 39617   0.0380  40.7346 0003187 238.2915 325.6085  1.00272153 28350
IRNSS-1B                
1 39635U 14017A   21365.80654912  .00000118  00000+0  00000+0 0  9999
2 39635  29.0835 267.9006 0018100 180.5331 357.4423  1.00274330 28464
LUCH 5V                 
1 39727U 14023A   22002.61027987 -.00000265  00000+0  00000+0 0  9996
2 39727   1.1183  71.1573 0001700 258.8609  86.6590  1.00270995 28045
KAZSAT-3                
1 39728U 14023B   22002.52972668  .00000065  00000+0  00000+0 0  9999
2 39728   0.0224  95.0512 0000343  42.3970 213.8629  1.00274724 26136
EUTELSAT 3B             
1 39773U 14030A   22002.30338635  .00000025  00000+0  00000+0 0  9999
2 39773   0.0597   7.1211 0004765 207.6884 359.4120  1.00270082 27756
ASIASAT 8 (AMOS-7)      
1 40107U 14046A   22002.34494076 -.00000028  00000+0  00000+0 0  9999
2 40107   0.0210  53.3280 0001869 216.7809 312.1393  1.00270294 85836
ASIASAT 6               
1 40141U 14052A   22001.78418806 -.00000354  00000+0  00000+0 0  9990
2 40141   0.0080  87.2866 0000742 211.1538 205.1478  1.00268262 26845
OPTUS 10                
1 40146U 14054A   22001.65989535 -.00000138  00000+0  00000+0 0  9995
2 40146   0.0395 284.0701 0003176 334.2989 236.4816  1.00273033 26716
MEASAT-3B               
1 40147U 14054B   22002.55327421 -.00000237  00000+0  00000+0 0  9996
2 40147   0.0269 351.5221 0002289 324.5509  76.7529  1.00272939 26594
LUCH (OLYMP)            
1 40258U 14058A   22002.61022531  .00000054  00000+0  00000+0 0  9990
2 40258   0.0402  98.9104 0001239 159.4339 123.4911  1.00270683 24685
HIMAWARI-8              
1 40267U 14060A   22002.60257625 -.00000271  00000+0  00000+0 0  9998
2 40267   0.0174  26.8889 0000468 260.6757 172.2255  1.00272264 26450
IRNSS-1C                
1 40269U 14061A   22002.53461090 -.00000158  00000+0  00000+0 0  9990
2 40269   2.6295 136.7792 0017646  11.6012 229.2609  1.00270506 26376
INTELSAT 30 (IS-30)     
1 40271U 14062A   22002.21198154 -.00000144  00000+0  00000+0 0  9992
2 40271   0.0012   6.5468 0002550 105.0107 331.5187  1.00269351 26276
ARSAT 1                 
1 40272U 14062B   22002.51299285 -.00000254  00000+0  00000+0 0  9995
2 40272   0.0124  25.2423 0001325 244.1249 305.6330  1.00269907 26304
EXPRESS-AM6             
1 40277U 14064A   22002.52859285  .00000103  00000+0  00000+0 0  9997
2 40277   0.0385 229.5512 0000311 175.0344 300.8465  1.00273002 26350
GSAT-16                 
1 40332U 14078A   22002.52902894  .00000090  00000+0  00000+0 0  9994
2 40332   0.0504 270.5524 0003158 193.1994 243.8667  1.00269628 25794
DIRECTV 14              
1 40333U 14078B   22002.49823209 -.00000120  00000+0  00000+0 0  9998
2 40333   0.0292  87.9134 0000359  44.8354  49.4901  1.00272835 25939
YAMAL 401               
1 40345U 14082A   22002.53730109 -.00000224  00000+0  00000+0 0  9992
2 40345   0.0084 304.7031 0000562 180.2585 260.5625  1.00272164 26108
ASTRA 2G                
1 40364U 14089A   22002.30835780  .00000156  00000+0  00000+0 0  9999
2 40364   0.0367  42.5345 0002375 335.9555 222.6336  1.00272434 25655
FENGYUN 2G              
1 40367U 14090A   22002.39426786 -.00000298  00000+0  00000+0 0  9993
2 40367   1.5205  90.9958 0003341 324.7051 287.5298  1.00282176 25687
MUOS-3                  
1 40374U 15002A   22002.34494076 -.00000124  00000+0  00000+0 0  9995
2 40374   2.5355   6.2420 0055260 182.1474  22.2957  1.00271363 25275
INMARSAT 5-F2           
1 40384U 15005A   22002.49493925 -.00000280  00000+0  00000+0 0  9990
2 40384   0.0180  30.1007 0000091 233.3381 321.8278  1.00269886 24685
ABS-3A                  
1 40424U 15010A   22002.34441993 -.00000021  00000+0  00000+0 0  9996
2 40424   0.0457  72.6653 0001262 115.0953  35.1637  1.00271562 25079
EUTELSAT 115 WEST B     
1 40425U 15010B   22002.60701463 -.00000020  00000+0  00000+0 0  9996
2 40425   0.0058 172.4784 0000234 119.5973 273.7619  1.00270639 25096
EXPRESS-AM7             
1 40505U 15012A   22002.18249365  .00000157  00000+0  00000+0 0  9998
2 40505   0.0100  52.7965 0002485 227.3137 287.3714  1.00268802 24695
IRNSS-1D                
1 40547U 15018A   21365.67407404 -.00000264  00000+0  00000+0 0  9995
2 40547  28.9143 267.9546 0018409 179.2953   7.3731  1.00265326 24660
BEIDOU 17               
1 40549U 15019A   22002.61050219 -.00000197  00000+0  00000+0 0  9994
2 40549  52.1705 314.6818 0036293 191.4993 272.1056  1.00278367 24771
THOR 7                  
1 40613U 15022A   22002.30260139 -.00000003  00000+0  00000+0 0  9996
2 40613   0.0249 115.1232 0002322 166.2301 288.8308  1.00271392 24518
TURKMENALEM52E/MONACOSAT
1 40617U 15023A   22002.52841840  .00000109  00000+0  00000+0 0  9995
2 40617   0.0138  66.7233 0002258 210.3616  67.2884  1.00269614 24522
DIRECTV 15              
1 40663U 15026A   22002.42575368 -.00000097  00000+0  00000+0 0  9994
2 40663   0.0162  68.9949 0000570 100.0103 343.4406  1.00272822 24152
SKY MEXICO-1            
1 40664U 15026B   22002.51975780 -.00000229  00000+0  00000+0 0  9994
2 40664   0.0114  44.4216 0002044 251.6446 274.3919  1.00269323 24149
METEOSAT-11 (MSG-4)     
1 40732U 15034A   22002.30268861 -.00000001  00000+0  00000+0 0  9999
2 40732   0.2699 321.5286 0000803 131.4199 117.4928  1.00270480 23717
STAR ONE C4             
1 40733U 15034B   22002.50390128 -.00000260  00000+0  00000+0 0  9991
2 40733   0.0289 124.5036 0001636 125.5729 323.4333  1.00271634 23714
WGS F7 (USA 263)        
1 40746U 15036A   22002.60471183  .00000022  00000+0  00000+0 0  9994
2 40746   0.0380  74.0044 0000314 244.2019 176.6790  1.00273914 23573
INTELSAT 34 (IS-34)     
1 40874U 15039A   22002.49493925 -.00000280  00000+0  00000+0 0  9991
2 40874   0.0123 344.0037 0000734 186.1016  54.6784  1.00270898 23317
EUTELSAT 8 WEST B       
1 40875U 15039B   22002.34494076 -.00000060  00000+0  00000+0 0  9990
2 40875   0.0652  24.1976 0002455 297.6996 256.2322  1.00271527 23341
GSAT-6                  
1 40880U 15041A   22002.53452368 -.00000156  00000+0  00000+0 0  9994
2 40880   0.0505  97.4349 0002924 152.0542 127.6075  1.00271314 23309
INMARSAT 5-F3           
1 40882U 15042A   22002.60803747  .00000055  00000+0  00000+0 0  9993
2 40882   0.0041 103.4121 0000602 356.7157  40.5633  1.00271141 23264
